NORAD_CAT_ID,OBJECT_NAME,OBJECT_TYPE,EPOCH,MEAN_MOTION,ECCENTRICITY,INCLINATION,RA_OF_ASC_NODE,ARG_OF_PERICENTER,MEAN_ANOMALY,BSTAR,MEAN_MOTION_DOT,MEAN_MOTION_DDOT,TLE_LINE0,TLE_LINE1,TLE_LINE2,SEMIMAJOR_AXIS,PERIOD,APOGEE,PERIGEE,DECAYED
53966.0,STARLINK-4635,PAYLOAD,2023-09-04 01:59:44,15.08849877,8.72e-05,53.2177,23.4908,65.3605,294.7478,0.00021984,3.214e-05,0.0,0 STARLINK-4635,1 53966U 22125C   23247.08315383  .00003214  00000-0  21984-3 0  9997,2 53966  53.2177  23.4908 0000872  65.3605 294.7478 15.08849877 50861,6917.85,95.437,540.318,539.112,0.0
53966.0,STARLINK-4635,PAYLOAD,2023-09-04 09:56:40,15.08838876,0.0001878,53.219,22.0058,87.2647,272.856,-2.5946e-05,-7.01e-06,0.0,0 STARLINK-4635,1 53966U 22125C   23247.41436203 -.00000701  00000-0 -25946-4 0  9992,2 53966  53.2190  22.0058 0001878  87.2647 272.8560 15.08838876 50915,6917.884,95.438,541.048,538.45,0.0
53966.0,STARLINK-4635,PAYLOAD,2023-09-04 17:53:36,15.08831094,0.0001794,53.2192,20.5193,87.3874,272.7323,-0.0001397,-2.51e-05,0.0,0 STARLINK-4635,1 53966U 22125C   23247.74556583 -.00002510  00000-0 -13970-3 0  9995,2 53966  53.2192  20.5193 0001794  87.3874 272.7323 15.08831094 50966,6917.908,95.438,541.014,538.532,0.0
53966.0,STARLINK-4635,PAYLOAD,2023-09-05 09:47:28,15.08839242,0.0001401,53.2192,17.5451,94.9627,265.1525,8.9143e-05,1.131e-05,0.0,0 STARLINK-4635,1 53966U 22125C   23248.40796477  .00001131  00000-0  89143-4 0  9999,2 53966  53.2192  17.5451 0001401  94.9627 265.1525 15.08839242 51069,6917.883,95.438,540.717,538.779,0.0
53966.0,STARLINK-4635,PAYLOAD,2023-09-06 11:13:38,15.08837558,0.0001298,53.218,12.7868,89.6769,270.4372,0.00020335,2.95e-05,0.0,0 STARLINK-4635,1 53966U 22125C   23249.46781033  .00002950  00000-0  20335-3 0  9995,2 53966  53.2180  12.7868 0001298  89.6769 270.4372 15.08837558 51154,6917.888,95.438,540.651,538.855,0.0
53966.0,STARLINK-4635,PAYLOAD,2023-09-07 07:53:39,15.08845449,0.0001318,53.2181,8.9201,87.7828,272.3315,0.00020439,2.967e-05,0.0,0 STARLINK-4635,1 53966U 22125C   23250.32892866  .00002967  00000-0  20439-3 0  9992,2 53966  53.2181   8.9201 0001318  87.7828 272.3315 15.08845449 51281,6917.864,95.437,540.641,538.817,0.0
53966.0,STARLINK-4635,PAYLOAD,2023-09-07 17:25:58,15.08851041,0.0001678,53.2175,7.1352,86.1375,273.9809,0.00029591,4.426e-05,0.0,0 STARLINK-4635,1 53966U 22125C   23250.72636681  .00004426  00000-0  29591-3 0  9997,2 53966  53.2175   7.1352 0001678  86.1375 273.9809 15.08851041 51348,6917.847,95.437,540.872,538.551,0.0
53966.0,STARLINK-4635,PAYLOAD,2023-09-08 01:22:53,15.08845791,0.0001708,53.2174,5.6483,86.448,273.6708,0.00020263,2.939e-05,0.0,0 STARLINK-4635,1 53966U 22125C   23251.05756876  .00002939  00000-0  20263-3 0  9997,2 53966  53.2174   5.6483 0001708  86.4480 273.6708 15.08845791 51462,6917.863,95.437,540.909,538.546,0.0
53966.0,STARLINK-4635,PAYLOAD,2023-09-08 14:05:58,15.08844072,0.0001358,53.2178,3.2709,91.0736,269.0412,0.00013786,1.907e-05,0.0,0 STARLINK-4635,1 53966U 22125C   23251.58748793  .00001907  00000-0  13786-3 0  9990,2 53966  53.2178   3.2709 0001358  91.0736 269.0412 15.08844072 51471,6917.868,95.437,540.672,538.793,0.0
53966.0,STARLINK-4635,PAYLOAD,2023-09-08 17:16:45,15.08846879,0.0001377,53.218,2.6749,97.7412,262.3737,0.00018786,2.704e-05,0.0,0 STARLINK-4635,1 53966U 22125C   23251.71996639  .00002704  00000-0  18786-3 0  9990,2 53966  53.2180   2.6749 0001377  97.7412 262.3737 15.08846879 51491,6917.859,95.437,540.677,538.772,0.0
53966.0,STARLINK-4635,PAYLOAD,2023-09-09 10:45:59,15.08842586,0.0001392,53.2183,359.404,95.2486,264.8665,0.00010403,1.368e-05,0.0,0 STARLINK-4635,1 53966U 22125C   23252.44860916  .00001368  00000-0  10403-3 0  9992,2 53966  53.2183 359.4040 0001392  95.2486 264.8665 15.08842586 51670,6917.872,95.437,540.7,538.775,0.0
53966.0,STARLINK-4635,PAYLOAD,2023-09-09 13:56:45,15.08847658,0.000127,53.2181,358.8098,88.1198,271.994,0.0001996,2.891e-05,0.0,0 STARLINK-4635,1 53966U 22125C   23252.58108635  .00002891  00000-0  19960-3 0  9999,2 53966  53.2181 358.8098 0001270  88.1198 271.9940 15.08847658 51625,6917.857,95.437,540.601,538.843,0.0
53966.0,STARLINK-4635,PAYLOAD,2023-09-10 13:47:32,15.08849631,0.0001407,53.2192,354.352,83.2233,276.8919,0.00012912,1.768e-05,0.0,0 STARLINK-4635,1 53966U 22125C   23253.57468389  .00001768  00000-0  12912-3 0  9996,2 53966  53.2192 354.3520 0001407  83.2233 276.8919 15.08849631 51775,6917.851,95.437,540.689,538.743,0.0
53966.0,STARLINK-4635,PAYLOAD,2023-09-11 10:27:34,15.08837237,0.0001449,53.2193,350.4862,95.0269,265.0889,-2.9849e-05,-7.63e-06,0.0,0 STARLINK-4635,1 53966U 22125C   23254.43581044 -.00000763  00000-0 -29849-4 0  9990,2 53966  53.2193 350.4862 0001449  95.0269 265.0889 15.08837237 51975,6917.889,95.438,540.756,538.751,0.0
53966.0,STARLINK-4635,PAYLOAD,2023-09-11 13:38:20,15.0883816,0.0001424,53.2197,349.8924,90.8829,269.2326,-2.2643e-05,-6.48e-06,0.0,0 STARLINK-4635,1 53966U 22125C   23254.56828981 -.00000648  00000-0 -22643-4 0  9995,2 53966  53.2197 349.8924 0001424  90.8829 269.2326 15.08838160 51921,6917.886,95.438,540.736,538.766,0.0
53966.0,STARLINK-4635,PAYLOAD,2023-09-12 13:29:06,15.08850893,0.0001322,53.219,345.4316,85.3209,274.7934,0.00019849,2.873e-05,0.0,0 STARLINK-4635,1 53966U 22125C   23255.56188515  .00002873  00000-0  19849-3 0  9991,2 53966  53.2190 345.4316 0001322  85.3209 274.7934 15.08850893 52079,6917.847,95.437,540.627,538.798,0.0
53966.0,STARLINK-4635,PAYLOAD,2023-09-13 10:09:07,15.08850097,0.0001436,53.2186,341.5653,86.2553,273.8604,0.00026036,3.859e-05,0.0,0 STARLINK-4635,1 53966U 22125C   23256.42300486  .00003859  00000-0  26036-3 0  9991,2 53966  53.2186 341.5653 0001436  86.2553 273.8604 15.08850097 52275,6917.85,95.437,540.708,538.721,0.0
53966.0,STARLINK-4635,PAYLOAD,2023-09-13 13:19:53,15.08854946,0.0001459,53.2183,340.9709,84.8919,275.2239,0.00031749,4.771e-05,0.0,0 STARLINK-4635,1 53966U 22125C   23256.55548220  .00004771  00000-0  31749-3 0  9996,2 53966  53.2183 340.9709 0001459  84.8919 275.2239 15.08854946 52224,6917.835,95.437,540.709,538.69,0.0
53966.0,STARLINK-4635,PAYLOAD,2023-09-14 09:59:56,15.08821531,0.0001499,53.2192,337.1059,74.9527,285.1631,-0.00021391,-3.689e-05,0.0,0 STARLINK-4635,1 53966U 22125C   23257.41662231 -.00003689  00000-0 -21391-3 0  9992,2 53966  53.2192 337.1059 0001499  74.9527 285.1631 15.08821531 52421,6917.937,95.439,540.839,538.765,0.0
53966.0,STARLINK-4635,PAYLOAD,2023-09-14 13:10:42,15.08817648,0.0001517,53.2181,336.5102,65.094,295.021,-0.00025287,-4.308e-05,0.0,0 STARLINK-4635,1 53966U 22125C   23257.54910552 -.00004308  00000-0 -25287-3 0  9995,2 53966  53.2181 336.5102 0001517  65.0940 295.0210 15.08817648 52373,6917.949,95.439,540.863,538.764,0.0
53966.0,STARLINK-4635,PAYLOAD,2023-09-15 09:50:43,15.08835784,0.000142,53.2177,332.6456,62.9699,297.1438,0.00033148,4.991e-05,0.0,0 STARLINK-4635,1 53966U 22125C   23258.41023022  .00004991  00000-0  33148-3 0  9990,2 53966  53.2177 332.6456 0001420  62.9699 297.1438 15.08835784 52575,6917.893,95.438,540.741,538.776,0.0
53966.0,STARLINK-4635,PAYLOAD,2023-09-15 11:26:06,15.08838834,0.0001487,53.218,332.3495,57.7425,302.3711,0.00034341,5.181e-05,0.0,0 STARLINK-4635,1 53966U 22125C   23258.47646981  .00005181  00000-0  34341-3 0  9999,2 53966  53.2180 332.3495 0001487  57.7425 302.3711 15.08838834 52517,6917.884,95.438,540.778,538.72,0.0
53966.0,STARLINK-4635,PAYLOAD,2023-09-16 09:41:30,15.08863119,0.0001609,53.2176,328.1856,60.0851,300.0301,0.00075856,0.00011813,0.0,0 STARLINK-4635,1 53966U 22125C   23259.40382612  .00011813  00000-0  75856-3 0  9996,2 53966  53.2176 328.1856 0001609  60.0851 300.0301 15.08863119 52729,6917.81,95.436,540.788,538.562,0.0
53966.0,STARLINK-4635,PAYLOAD,2023-09-16 11:16:53,15.08863516,0.0001645,53.2178,327.8882,60.9031,299.2126,0.0006955,0.00010805,0.0,0 STARLINK-4635,1 53966U 22125C   23259.47006509  .00010805  00000-0  69550-3 0  9995,2 53966  53.2178 327.8882 0001645  60.9031 299.2126 15.08863516 52663,6917.809,95.436,540.811,538.536,0.0
53966.0,STARLINK-4635,PAYLOAD,2023-09-17 11:07:40,15.08853646,0.0001579,53.2171,323.4263,69.3646,290.7516,0.0001547,2.176e-05,0.0,0 STARLINK-4635,1 53966U 22125C   23260.46365937  .00002176  00000-0  15470-3 0  9993,2 53966  53.2171 323.4263 0001579  69.3646 290.7516 15.08853646 52811,6917.839,95.437,540.796,538.611,0.0
53966.0,STARLINK-4635,PAYLOAD,2023-09-17 23:50:45,15.08848116,0.0001477,53.2169,321.0467,81.5091,278.6069,-1.8818e-05,-5.88e-06,0.0,0 STARLINK-4635,1 53966U 22125C   23260.99357789 -.00000588  00000-0 -18818-4 0  9994,2 53966  53.2169 321.0467 0001477  81.5091 278.6069 15.08848116 52965,6917.856,95.437,540.742,538.699,0.0
53966.0,STARLINK-4635,PAYLOAD,2023-09-18 09:23:03,15.08850862,0.0001514,53.2179,319.2639,75.3613,284.7547,4.4466e-05,4.2e-06,0.0,0 STARLINK-4635,1 53966U 22125C   23261.39101580  .00000420  00000-0  44466-4 0  9996,2 53966  53.2179 319.2639 0001514  75.3613 284.7547 15.08850862 52958,6917.847,95.437,540.76,538.665,0.0
53966.0,STARLINK-4635,PAYLOAD,2023-09-18 20:30:45,15.08851106,0.0001431,53.2178,317.1827,80.7265,279.3889,9.923e-06,-1.3e-06,0.0,0 STARLINK-4635,1 53966U 22125C   23261.85469270 -.00000130  00000-0  99230-5 0  9999,2 53966  53.2178 317.1827 0001431  80.7265 279.3889 15.08851106 53024,6917.846,95.437,540.701,538.721,0.0
53966.0,STARLINK-4635,PAYLOAD,2023-09-19 02:52:18,15.08844964,0.0001447,53.2175,315.9927,77.0574,283.058,8.6396e-05,1.087e-05,0.0,0 STARLINK-4635,1 53966U 22125C   23262.11965492  .00001087  00000-0  86396-4 0  9995,2 53966  53.2175 315.9927 0001447  77.0574 283.0580 15.08844964 53133,6917.865,95.437,540.731,538.729,0.0
53966.0,STARLINK-4635,PAYLOAD,2023-09-19 13:59:59,15.08854569,0.0001579,53.2176,313.9104,93.3629,266.7543,0.00017705,2.532e-05,0.0,0 STARLINK-4635,1 53966U 22125C   23262.58332515  .00002532  00000-0  17705-3 0  9993,2 53966  53.2176 313.9104 0001579  93.3629 266.7543 15.08854569 53204,6917.836,95.437,540.793,538.609,0.0
